[{"OBJECT_NAME":"STARLINK-5888","OBJECT_ID":"2023-058AH","EPOCH":"2026-03-09T23:21:54.122976","MEAN_MOTION":15.01259411,"ECCENTRICITY":0.00021802,"INCLINATION":97.6029,"RA_OF_ASC_NODE":70.4861,"ARG_OF_PERICENTER":164.2929,"MEAN_ANOMALY":195.8363,"EPHEMERIS_TYPE":0,"CLASSIFICATION_TYPE":"U","NORAD_CAT_ID":56348,"ELEMENT_SET_NO":999,"REV_AT_EPOCH":15817,"BSTAR":-4.5188127e-5,"MEAN_MOTION_DOT":-6.39e-6,"MEAN_MOTION_DDOT":0},{"OBJECT_NAME":"COSMOS 2251 DEB","OBJECT_ID":"1993-036APM","EPOCH":"2026-03-04T21:32:54.192480","MEAN_MOTION":14.96947229,"ECCENTRICITY":0.00350755,"INCLINATION":73.891,"RA_OF_ASC_NODE":257.2416,"ARG_OF_PERICENTER":202.261,"MEAN_ANOMALY":157.7054,"EPHEMERIS_TYPE":0,"CLASSIFICATION_TYPE":"U","NORAD_CAT_ID":35670,"ELEMENT_SET_NO":999,"REV_AT_EPOCH":88955,"BSTAR":0.0015922685,"MEAN_MOTION_DOT":0.00018541,"MEAN_MOTION_DDOT":0}]
